NORAD_CAT_ID,OBJECT_NAME,OBJECT_TYPE,EPOCH,MEAN_MOTION,ECCENTRICITY,INCLINATION,RA_OF_ASC_NODE,ARG_OF_PERICENTER,MEAN_ANOMALY,BSTAR,MEAN_MOTION_DOT,MEAN_MOTION_DDOT,TLE_LINE0,TLE_LINE1,TLE_LINE2,SEMIMAJOR_AXIS,PERIOD,APOGEE,PERIGEE,DECAYED
54051.0,STARLINK-5195,PAYLOAD,2024-06-01 20:52:37,15.08869627,0.0001291,53.2174,3.5672,83.7277,276.3863,-0.00044002,-7.29e-05,0.0,0 STARLINK-5195,1 54051U 22136A   24153.86987272 -.00007290  00000-0 -44002-3 0  9996,2 54051  53.2174   3.5672 0001291  83.7277 276.3863 15.08869627 89823,6917.79,95.436,540.548,538.762,0.0
54051.0,STARLINK-5195,PAYLOAD,2024-06-02 06:24:55,15.08837617,0.0001117,53.2178,1.7828,91.4144,268.6976,0.00018931,2.726e-05,0.0,0 STARLINK-5195,1 54051U 22136A   24154.26731475  .00002726  00000-0  18931-3 0  9992,2 54051  53.2178   1.7828 0001117  91.4144 268.6976 15.08837617 89885,6917.888,95.438,540.525,538.98,0.0
54051.0,STARLINK-5195,PAYLOAD,2024-06-02 20:43:25,15.08829338,0.0001303,53.2199,359.1068,92.0549,268.0593,3.4573e-05,2.62e-06,0.0,0 STARLINK-5195,1 54051U 22136A   24154.86348879  .00000262  00000-0  34573-4 0  9994,2 54051  53.2199 359.1068 0001303  92.0549 268.0593 15.08829338 89977,6917.913,95.438,540.679,538.877,0.0
54051.0,STARLINK-5195,PAYLOAD,2024-06-03 06:15:43,15.08839772,0.0001503,53.22,357.3236,97.0505,263.0658,0.00010152,1.328e-05,0.0,0 STARLINK-5195,1 54051U 22136A   24155.26092218  .00001328  00000-0  10152-3 0  9992,2 54051  53.2200 357.3236 0001503  97.0505 263.0658 15.08839772 90035,6917.881,95.438,540.786,538.706,0.0
54051.0,STARLINK-5195,PAYLOAD,2024-06-03 22:09:35,15.08837982,0.0001355,53.2207,354.3496,95.3021,264.8126,7.4145e-05,8.92e-06,0.0,0 STARLINK-5195,1 54051U 22136A   24155.92332479  .00000892  00000-0  74145-4 0  9999,2 54051  53.2207 354.3496 0001355  95.3021 264.8126 15.08837982 89652,6917.887,95.438,540.689,538.814,0.0
54051.0,STARLINK-5195,PAYLOAD,2024-06-04 06:06:29,15.08858105,9.46e-05,53.2196,352.8611,81.1598,278.9502,0.00015415,2.168e-05,0.0,0 STARLINK-5195,1 54051U 22136A   24156.25450734  .00002168  00000-0  15415-3 0  9993,2 54051  53.2196 352.8611 0000946  81.1598 278.9502 15.08858105 90182,6917.825,95.436,540.344,539.036,0.0
54051.0,STARLINK-5195,PAYLOAD,2024-06-04 22:00:22,15.08839536,0.0001207,53.2192,349.8857,73.5539,286.5585,-7.9944e-05,-1.56e-05,0.0,0 STARLINK-5195,1 54051U 22136A   24156.91692876 -.00001560  00000-0 -79944-4 0  9996,2 54051  53.2192 349.8857 0001207  73.5539 286.5585 15.08839536 89807,6917.882,95.438,540.582,538.912,0.0
54051.0,STARLINK-5195,PAYLOAD,2024-06-05 12:18:50,15.08845391,0.000207,53.213,347.2103,82.7704,277.3524,-1.3117e-05,-4.97e-06,0.0,0 STARLINK-5195,1 54051U 22136A   24157.51308473 -.00000497  00000-0 -13117-4 0  9998,2 54051  53.2130 347.2103 0002070  82.7704 277.3524 15.08845391 90371,6917.864,95.437,541.161,538.297,0.0
54051.0,STARLINK-5195,PAYLOAD,2024-06-05 21:51:09,15.08845089,0.0001218,53.2152,345.427,86.6912,273.422,-8.3717e-05,-1.62e-05,0.0,0 STARLINK-5195,1 54051U 22136A   24157.91052528 -.00001620  00000-0 -83717-4 0  9991,2 54051  53.2152 345.4270 0001218  86.6912 273.4220 15.08845089 89953,6917.865,95.437,540.572,538.887,0.0
54051.0,STARLINK-5195,PAYLOAD,2024-06-06 05:48:04,15.08832787,0.0001426,53.2203,343.9382,75.6997,284.4153,0.00042458,6.474e-05,0.0,0 STARLINK-5195,1 54051U 22136A   24158.24171925  .00006474  00000-0  42458-3 0  9997,2 54051  53.2203 343.9382 0001426  75.6997 284.4153 15.08832787 90005,6917.902,95.438,540.754,538.781,0.0
54051.0,STARLINK-5195,PAYLOAD,2024-06-06 21:41:56,15.08839811,0.0001543,53.2138,340.9665,86.5325,273.5844,3.9264e-05,3.37e-06,0.0,0 STARLINK-5195,1 54051U 22136A   24158.90412516  .00000337  00000-0  39264-4 0  9998,2 54051  53.2138 340.9665 0001543  86.5325 273.5844 15.08839811 90583,6917.881,95.438,540.813,538.679,0.0
54051.0,STARLINK-5195,PAYLOAD,2024-06-07 18:21:57,15.08832596,0.000195,53.2165,337.0973,101.3501,258.771,0.0001873,2.693e-05,0.0,0 STARLINK-5195,1 54051U 22136A   24159.76524712  .00002693  00000-0  18730-3 0  9996,2 54051  53.2165 337.0973 0001950 101.3501 258.7710 15.08832596 90238,6917.903,95.438,541.117,538.419,0.0
54051.0,STARLINK-5195,PAYLOAD,2024-06-08 21:23:31,15.08815737,0.0002576,53.2152,332.0421,99.3024,260.826,0.0002583,3.822e-05,0.0,0 STARLINK-5195,1 54051U 22136A   24160.89133626  .00003822  00000-0  25830-3 0  9996,2 54051  53.2152 332.0421 0002576  99.3024 260.8260 15.08815737 90881,6917.955,95.439,541.602,538.037,0.0
54051.0,STARLINK-5195,PAYLOAD,2024-06-09 10:06:35,15.08864262,0.0002149,53.2155,329.6648,93.3399,266.7839,-0.00027139,-4.608e-05,0.0,0 STARLINK-5195,1 54051U 22136A   24161.42123850 -.00004608  00000-0 -27139-3 0  9993,2 54051  53.2155 329.6648 0002149  93.3399 266.7839 15.08864262 90965,6917.806,95.436,541.158,538.185,0.0
54051.0,STARLINK-5195,PAYLOAD,2024-06-09 21:14:18,15.08833388,0.0001611,53.2184,327.5832,97.0855,263.032,3.534e-05,2.74e-06,0.0,0 STARLINK-5195,1 54051U 22136A   24161.88493478  .00000274  00000-0  35340-4 0  9996,2 54051  53.2184 327.5832 0001611  97.0855 263.0320 15.08833388 91039,6917.901,95.438,540.88,538.651,0.0
54051.0,STARLINK-5195,PAYLOAD,2024-06-10 11:32:47,15.08820357,9.49e-05,53.218,324.908,86.6178,273.4922,-4.8511e-05,-1.059e-05,0.0,0 STARLINK-5195,1 54051U 22136A   24162.48110443 -.00001059  00000-0 -48511-4 0  9999,2 54051  53.2180 324.9080 0000949  86.6178 273.4922 15.08820357 91121,6917.94,95.439,540.462,539.149,0.0
54051.0,STARLINK-5195,PAYLOAD,2024-06-10 14:43:32,15.08831992,0.0001157,53.2185,324.3135,96.5888,263.5236,5.1582e-05,5.33e-06,0.0,0 STARLINK-5195,1 54051U 22136A   24162.61357556  .00000533  00000-0  51582-4 0  9998,2 54051  53.2185 324.3135 0001157  96.5888 263.5236 15.08831992 90664,6917.905,95.438,540.57,538.969,0.0
54051.0,STARLINK-5195,PAYLOAD,2024-06-10 17:54:19,15.08833427,0.0001006,53.2178,323.7203,81.7125,278.3981,5.6887e-05,6.18e-06,0.0,0 STARLINK-5195,1 54051U 22136A   24162.74605525  .00000618  00000-0  56887-4 0  9991,2 54051  53.2178 323.7203 0001006  81.7125 278.3981 15.08833427 91160,6917.9,95.438,540.461,539.07,0.0
54051.0,STARLINK-5195,PAYLOAD,2024-06-11 03:26:37,15.08844588,0.0001004,53.2187,321.9362,91.0485,269.0622,0.0001511,2.118e-05,0.0,0 STARLINK-5195,1 54051U 22136A   24163.14348557  .00002118  00000-0  15110-3 0  9995,2 54051  53.2187 321.9362 0001004  91.0485 269.0622 15.08844588 91223,6917.866,95.437,540.426,539.037,0.0
54051.0,STARLINK-5195,PAYLOAD,2024-06-11 11:23:33,15.08835319,5.55e-05,53.2204,320.4498,101.5715,258.5339,-2.8972e-05,-7.49e-06,0.0,0 STARLINK-5195,1 54051U 22136A   24163.47469670 -.00000749  00000-0 -28972-4 0  9992,2 54051  53.2204 320.4498 0000555 101.5715 258.5339 15.08835319 90791,6917.895,95.438,540.144,539.376,0.0
54051.0,STARLINK-5195,PAYLOAD,2024-06-12 03:17:23,15.08856895,0.0001521,53.218,317.4743,78.0426,282.0737,0.0001029,1.351e-05,0.0,0 STARLINK-5195,1 54051U 22136A   24164.13708188  .00001351  00000-0  10290-3 0  9997,2 54051  53.2180 317.4743 0001521  78.0426 282.0737 15.08856895 90891,6917.829,95.436,540.746,538.642,0.0
54051.0,STARLINK-5195,PAYLOAD,2024-06-12 17:35:54,15.08830034,0.0001342,53.2192,314.7996,82.3066,277.8078,6.9739e-06,-1.77e-06,0.0,0 STARLINK-5195,1 54051U 22136A   24164.73326419 -.00000177  00000-0  69739-5 0  9996,2 54051  53.2192 314.7996 0001342  82.3066 277.8078 15.08830034 91464,6917.911,95.438,540.704,538.847,0.0
54051.0,STARLINK-5195,PAYLOAD,2024-06-13 03:08:12,15.08843088,0.0001531,53.2185,313.0145,79.4647,280.6517,9.3779e-06,-1.39e-06,0.0,0 STARLINK-5195,1 54051U 22136A   24165.13069640 -.00000139  00000-0  93779-5 0  9990,2 54051  53.2185 313.0145 0001531  79.4647 280.6517 15.08843088 91526,6917.871,95.437,540.795,538.677,0.0
54051.0,STARLINK-5195,PAYLOAD,2024-06-13 14:15:54,15.08827392,0.0001279,53.2175,310.9331,84.9561,275.1577,5.9295e-05,6.56e-06,0.0,0 STARLINK-5195,1 54051U 22136A   24165.59438584  .00000656  00000-0  59295-4 0  9994,2 54051  53.2175 310.9331 0001279  84.9561 275.1577 15.08827392 91113,6917.919,95.438,540.669,538.899,0.0
54051.0,STARLINK-5195,PAYLOAD,2024-06-13 17:26:40,15.08836603,0.0001196,53.2179,310.338,81.5652,278.5476,-7.2175e-06,-4.03e-06,0.0,0 STARLINK-5195,1 54051U 22136A   24165.72686196 -.00000403  00000-0 -72175-5 0  9998,2 54051  53.2179 310.3380 0001196  81.5652 278.5476 15.08836603 91139,6917.891,95.438,540.583,538.928,0.0
54051.0,STARLINK-5195,PAYLOAD,2024-06-14 14:06:41,15.08835917,0.0001436,53.2187,306.473,79.0976,281.0178,0.00015949,2.251e-05,0.0,0 STARLINK-5195,1 54051U 22136A   24166.58798005  .00002251  00000-0  15949-3 0  9991,2 54051  53.2187 306.4730 0001436  79.0976 281.0178 15.08835917 91260,6917.893,95.438,540.751,538.764,0.0
54051.0,STARLINK-5195,PAYLOAD,2024-06-14 15:42:04,15.08837191,0.0001183,53.218,306.1752,79.7803,280.3322,0.00019507,2.818e-05,0.0,0 STARLINK-5195,1 54051U 22136A   24166.65421804  .00002818  00000-0  19507-3 0  9992,2 54051  53.2180 306.1752 0001183  79.7803 280.3322 15.08837191 91279,6917.889,95.438,540.572,538.936,0.0
54051.0,STARLINK-5195,PAYLOAD,2024-06-15 13:57:28,15.08834057,0.0001231,53.2189,302.0079,119.1569,240.9546,0.00024936,3.682e-05,0.0,0 STARLINK-5195,1 54051U 22136A   24167.58157777  .00003682  00000-0  24936-3 0  9992,2 54051  53.2189 302.0079 0001231 119.1569 240.9546 15.08834057 91411,6917.899,95.438,540.615,538.912,0.0
54051.0,STARLINK-5195,PAYLOAD,2024-06-15 18:43:37,15.08843743,0.0001334,53.2181,301.1182,92.8597,267.2548,8.5846e-05,1.079e-05,0.0,0 STARLINK-5195,1 54051U 22136A   24167.78029637  .00001079  00000-0  85846-4 0  9993,2 54051  53.2181 301.1182 0001334  92.8597 267.2548 15.08843743 91449,6917.869,95.437,540.657,538.811,0.0
54051.0,STARLINK-5195,PAYLOAD,2024-06-16 13:48:15,15.08841092,0.0001381,53.2183,297.5486,100.7862,259.3286,4.0201e-05,3.52e-06,0.0,0 STARLINK-5195,1 54051U 22136A   24168.57517746  .00000352  00000-0  40201-4 0  9993,2 54051  53.2183 297.5486 0001381 100.7862 259.3286 15.08841092 91561,6917.877,95.437,540.697,538.787,0.0
